{
 "type": "FeatureCollection",
 "metadata": {
  "generator": "scripts/fetch_osm_buildings.py",
  "source": "OpenStreetMap via Overpass API, ODbL",
  "bbox": [
   30.02,
   31.47,
   30.05,
   31.52
  ],
  "seed": 20260814,
  "count": 50,
  "note": "Footprints and locations are real OSM data. Operational attributes (occupancy, HVAC age, insulation quality, consumption) are synthetic; a deployment would collect them through the profile-entry form."
 },
 "features": [
  {
   "type": "Feature",
   "geometry": {
    "type": "Polygon",
    "coordinates": [
     [
      [
       31.4802224,
       30.0262216
      ],
      [
       31.4805555,
       30.0265325
      ],
      [
       31.4806671,
       30.0264232
      ],
      [
       31.4807832,
       30.0264207
      ],
      [
       31.4808975,
       30.0265334
      ],
      [
       31.4812354,
       30.0262196
      ],
      [
       31.4808986,
       30.0259137
      ],
      [
       31.4808591,
       30.0259478
      ],
      [
       31.4805943,
       30.0259458
      ],
      [
       31.4805692,
       30.0259161
      ],
      [
       31.4802224,
       30.0262216
      ]
     ]
    ]
   },
   "properties": {
    "id": "b001",
    "code": "NAC-Downtown-001",
    "name": "Office Building 1",
    "district": "Downtown-CBD",
    "lat": 30.026207,
    "lon": 31.480728,
    "floor_area_m2": 16389.3,
    "roof_area_m2": 4097.3,
    "glazing_area_m2": 1362.2,
    "roof_orientation": "FLAT",
    "hvac_type": "split",
    "hvac_age_yr": 4,
    "insulation_quality": "good",
    "occupancy_pattern": "office",
    "annual_kwh": 2780475.0,
    "osm_way_id": 832893991
   }
  },
  {
   "type": "Feature",
   "geometry": {
    "type": "Polygon",
    "coordinates": [
     [
      [
       31.4875415,
       30.0413463
      ],
      [
       31.4876023,
       30.0412893
      ],
      [
       31.4875799,
       30.0412714
      ],
      [
       31.4878328,
       30.0410346
      ],
      [
       31.4878984,
       30.0410872
      ],
      [
       31.4878636,
       30.0411198
      ],
      [
       31.4878966,
       30.0411461
      ],
      [
       31.4879314,
       30.0411135
      ],
      [
       31.4880693,
       30.041224
      ],
      [
       31.4880557,
       30.0412367
      ],
      [
       31.4880697,
       30.041248
      ],
      [
       31.4880616,
       30.0413118
      ],
      [
       31.4880838,
       30.0413298
      ],
      [
       31.4880858,
       30.041389
      ],
      [
       31.4879617,
       30.0415022
      ],
      [
       31.487898,
       30.041508
      ],
      [
       31.4878665,
       30.041479
      ],
      [
       31.4878202,
       30.0414813
      ],
      [
       31.4878027,
       30.0414673
      ],
      [
       31.4877674,
       30.0415003
      ],
      [
       31.4877388,
       30.0414774
      ],
      [
       31.4877234,
       30.0414919
      ],
      [
       31.4875415,
       30.0413463
      ]
     ]
    ]
   },
   "properties": {
    "id": "b002",
    "code": "NAC-Downtown-002",
    "name": "Office Building 2",
    "district": "Downtown-CBD",
    "lat": 30.041321,
    "lon": 31.487871,
    "floor_area_m2": 3393.5,
    "roof_area_m2": 1696.8,
    "glazing_area_m2": 290.4,
    "roof_orientation": "W",
    "hvac_type": "package",
    "hvac_age_yr": 19,
    "insulation_quality": "fair",
    "occupancy_pattern": "office",
    "annual_kwh": 617147.0,
    "osm_way_id": 1123856551
   }
  },
  {
   "type": "Feature",
   "geometry": {
    "type": "Polygon",
    "coordinates": [
     [
      [
       31.4792361,
       30.0389267
      ],
      [
       31.4792574,
       30.0389086
      ],
      [
       31.4792817,
       30.0388879
      ],
      [
       31.4793064,
       30.0389097
      ],
      [
       31.4793634,
       30.0388613
      ],
      [
       31.4794646,
       30.0388628
      ],
      [
       31.4795367,
       30.0388639
      ],
      [
       31.4795623,
       30.0388869
      ],
      [
       31.4795769,
       30.0388747
      ],
      [
       31.4796596,
       30.0389488
      ],
      [
       31.4796432,
       30.0389625
      ],
      [
       31.4796624,
       30.0389798
      ],
      [
       31.479673,
       30.0389893
      ],
      [
       31.4796694,
       30.0392275
      ],
      [
       31.4792493,
       30.0392227
      ],
      [
       31.4792524,
       30.039016
      ],
      [
       31.4792957,
       30.0389792
      ],
      [
       31.4792361,
       30.0389267
      ]
     ]
    ]
   },
   "properties": {
    "id": "b003",
    "code": "NAC-Downtown-003",
    "name": "Office Building 3",
    "district": "Downtown-CBD",
    "lat": 30.038959,
    "lon": 31.479452,
    "floor_area_m2": 4543.3,
    "roof_area_m2": 1514.4,
    "glazing_area_m2": 769.4,
    "roof_orientation": "FLAT",
    "hvac_type": "split",
    "hvac_age_yr": 9,
    "insulation_quality": "good",
    "occupancy_pattern": "office",
    "annual_kwh": 839691.0,
    "osm_way_id": 1123859413
   }
  },
  {
   "type": "Feature",
   "geometry": {
    "type": "Polygon",
    "coordinates": [
     [
      [
       31.4867423,
       30.0261611
      ],
      [
       31.48726,
       30.0261611
      ],
      [
       31.4873109,
       30.0261448
      ],
      [
       31.4873056,
       30.0260008
      ],
      [
       31.4872305,
       30.0259962
      ],
      [
       31.4871688,
       30.0260101
      ],
      [
       31.4871715,
       30.0260519
      ],
      [
       31.4868871,
       30.0260357
      ],
      [
       31.4868013,
       30.0260357
      ],
      [
       31.4867369,
       30.0260914
      ],
      [
       31.4867423,
       30.0261611
      ]
     ]
    ]
   },
   "properties": {
    "id": "b004",
    "code": "NAC-Downtown-004",
    "name": "Office Building 4",
    "district": "Downtown-CBD",
    "lat": 30.026069,
    "lon": 31.487061,
    "floor_area_m2": 3084.5,
    "roof_area_m2": 771.1,
    "glazing_area_m2": 871.1,
    "roof_orientation": "S",
    "hvac_type": "split",
    "hvac_age_yr": 4,
    "insulation_quality": "good",
    "occupancy_pattern": "office",
    "annual_kwh": 538793.0,
    "osm_way_id": 338261352
   }
  },
  {
   "type": "Feature",
   "geometry": {
    "type": "Polygon",
    "coordinates": [
     [
      [
       31.4798381,
       30.023322
      ],
      [
       31.4799642,
       30.0233215
      ],
      [
       31.4799641,
       30.0233083
      ],
      [
       31.4800081,
       30.0233082
      ],
      [
       31.4800081,
       30.0232954
      ],
      [
       31.4800468,
       30.0232952
      ],
      [
       31.4800459,
       30.0231366
      ],
      [
       31.4800102,
       30.0231367
      ],
      [
       31.4800101,
       30.0231242
      ],
      [
       31.4799668,
       30.0231243
      ],
      [
       31.4799667,
       30.0231091
      ],
      [
       31.479826,
       30.0231097
      ],
      [
       31.4798261,
       30.0231257
      ],
      [
       31.4797866,
       30.0231258
      ],
      [
       31.4797867,
       30.0231405
      ],
      [
       31.4797576,
       30.0231406
      ],
      [
       31.4797583,
       30.0232908
      ],
      [
       31.4797985,
       30.0232906
      ],
      [
       31.4797985,
       30.0233074
      ],
      [
       31.479838,
       30.0233073
      ],
      [
       31.4798381,
       30.023322
      ]
     ]
    ]
   },
   "properties": {
    "id": "b005",
    "code": "NAC-Downtown-005",
    "name": "Office Building 5",
    "district": "Downtown-CBD",
    "lat": 30.023216,
    "lon": 31.4799,
    "floor_area_m2": 1758.7,
    "roof_area_m2": 586.2,
    "glazing_area_m2": 449.0,
    "roof_orientation": "FLAT",
    "hvac_type": "split",
    "hvac_age_yr": 15,
    "insulation_quality": "good",
    "occupancy_pattern": "office",
    "annual_kwh": 250161.0,
    "osm_way_id": 592098082
   }
  },
  {
   "type": "Feature",
   "geometry": {
    "type": "Polygon",
    "coordinates": [
     [
      [
       31.4796624,
       30.0232588
      ],
      [
       31.4796611,
       30.0231496
      ],
      [
       31.479646,
       30.0231498
      ],
      [
       31.4796455,
       30.0231116
      ],
      [
       31.4796308,
       30.0231118
      ],
      [
       31.4796304,
       30.0230782
      ],
      [
       31.4794472,
       30.0230799
      ],
      [
       31.4794475,
       30.0231108
      ],
      [
       31.479433,
       30.023111
      ],
      [
       31.4794335,
       30.0231485
      ],
      [
       31.4794159,
       30.0231486
      ],
      [
       31.4794173,
       30.0232704
      ],
      [
       31.4794358,
       30.0232702
      ],
      [
       31.4794362,
       30.0233044
      ],
      [
       31.4794531,
       30.0233043
      ],
      [
       31.4794534,
       30.0233295
      ],
      [
       31.4796269,
       30.023328
      ],
      [
       31.4796265,
       30.0232933
      ],
      [
       31.4796458,
       30.0232931
      ],
      [
       31.4796454,
       30.023259
      ],
      [
       31.4796624,
       30.0232588
      ]
     ]
    ]
   },
   "properties": {
    "id": "b006",
    "code": "NAC-Downtown-006",
    "name": "School Building 6",
    "district": "Downtown-CBD",
    "lat": 30.023206,
    "lon": 31.47954,
    "floor_area_m2": 2344.5,
    "roof_area_m2": 586.1,
    "glazing_area_m2": 478.7,
    "roof_orientation": "FLAT",
    "hvac_type": "package",
    "hvac_age_yr": 6,
    "insulation_quality": "fair",
    "occupancy_pattern": "school",
    "annual_kwh": 191179.0,
    "osm_way_id": 592098083
   }
  },
  {
   "type": "Feature",
   "geometry": {
    "type": "Polygon",
    "coordinates": [
     [
      [
       31.4800361,
       30.0242126
      ],
      [
       31.4800348,
       30.0241034
      ],
      [
       31.4800197,
       30.0241036
      ],
      [
       31.4800192,
       30.0240654
      ],
      [
       31.4800045,
       30.0240656
      ],
      [
       31.4800041,
       30.024032
      ],
      [
       31.4798209,
       30.0240337
      ],
      [
       31.4798212,
       30.0240646
      ],
      [
       31.4798067,
       30.0240648
      ],
      [
       31.4798072,
       30.0241023
      ],
      [
       31.4797896,
       30.0241024
      ],
      [
       31.479791,
       30.0242242
      ],
      [
       31.4798095,
       30.024224
      ],
      [
       31.4798099,
       30.0242582
      ],
      [
       31.4798268,
       30.0242581
      ],
      [
       31.4798271,
       30.0242833
      ],
      [
       31.4800006,
       30.0242818
      ],
      [
       31.4800002,
       30.0242471
      ],
      [
       31.4800195,
       30.0242469
      ],
      [
       31.4800191,
       30.0242128
      ],
      [
       31.4800361,
       30.0242126
      ]
     ]
    ]
   },
   "properties": {
    "id": "b007",
    "code": "NAC-Downtown-007",
    "name": "Admin 24X7 Building 7",
    "district": "Downtown-CBD",
    "lat": 30.024159,
    "lon": 31.479913,
    "floor_area_m2": 2930.6,
    "roof_area_m2": 586.1,
    "glazing_area_m2": 250.4,
    "roof_orientation": "SE",
    "hvac_type": "chiller",
    "hvac_age_yr": 25,
    "insulation_quality": "poor",
    "occupancy_pattern": "admin_24x7",
    "annual_kwh": 608148.0,
    "osm_way_id": 592104145
   }
  },
  {
   "type": "Feature",
   "geometry": {
    "type": "Polygon",
    "coordinates": [
     [
      [
       31.479359,
       30.0242287
      ],
      [
       31.4793577,
       30.0241195
      ],
      [
       31.4793426,
       30.0241197
      ],
      [
       31.4793421,
       30.0240815
      ],
      [
       31.4793274,
       30.0240817
      ],
      [
       31.479327,
       30.0240481
      ],
      [
       31.4791438,
       30.0240498
      ],
      [
       31.4791441,
       30.0240807
      ],
      [
       31.4791296,
       30.0240809
      ],
      [
       31.4791301,
       30.0241184
      ],
      [
       31.4791125,
       30.0241185
      ],
      [
       31.4791139,
       30.0242403
      ],
      [
       31.4791324,
       30.0242401
      ],
      [
       31.4791328,
       30.0242743
      ],
      [
       31.4791497,
       30.0242742
      ],
      [
       31.47915,
       30.0242994
      ],
      [
       31.4793235,
       30.0242979
      ],
      [
       31.4793231,
       30.0242632
      ],
      [
       31.4793424,
       30.024263
      ],
      [
       31.479342,
       30.0242289
      ],
      [
       31.479359,
       30.0242287
      ]
     ]
    ]
   },
   "properties": {
    "id": "b008",
    "code": "NAC-Downtown-008",
    "name": "Office Building 8",
    "district": "Downtown-CBD",
    "lat": 30.024175,
    "lon": 31.479236,
    "floor_area_m2": 2344.5,
    "roof_area_m2": 586.1,
    "glazing_area_m2": 237.7,
    "roof_orientation": "FLAT",
    "hvac_type": "split",
    "hvac_age_yr": 5,
    "insulation_quality": "fair",
    "occupancy_pattern": "office",
    "annual_kwh": 376594.0,
    "osm_way_id": 592104142
   }
  },
  {
   "type": "Feature",
   "geometry": {
    "type": "Polygon",
    "coordinates": [
     [
      [
       31.4796228,
       30.0242267
      ],
      [
       31.4796215,
       30.0241175
      ],
      [
       31.4796064,
       30.0241177
      ],
      [
       31.4796059,
       30.0240795
      ],
      [
       31.4795912,
       30.0240797
      ],
      [
       31.4795908,
       30.0240461
      ],
      [
       31.4794076,
       30.0240478
      ],
      [
       31.4794079,
       30.0240787
      ],
      [
       31.4793934,
       30.0240789
      ],
      [
       31.4793939,
       30.0241164
      ],
      [
       31.4793763,
       30.0241165
      ],
      [
       31.4793777,
       30.0242383
      ],
      [
       31.4793962,
       30.0242381
      ],
      [
       31.4793966,
       30.0242723
      ],
      [
       31.4794135,
       30.0242722
      ],
      [
       31.4794138,
       30.0242974
      ],
      [
       31.4795873,
       30.0242959
      ],
      [
       31.4795869,
       30.0242612
      ],
      [
       31.4796062,
       30.024261
      ],
      [
       31.4796058,
       30.0242269
      ],
      [
       31.4796228,
       30.0242267
      ]
     ]
    ]
   },
   "properties": {
    "id": "b009",
    "code": "NAC-Downtown-009",
    "name": "School Building 9",
    "district": "Downtown-CBD",
    "lat": 30.024173,
    "lon": 31.4795,
    "floor_area_m2": 1172.2,
    "roof_area_m2": 586.1,
    "glazing_area_m2": 121.7,
    "roof_orientation": "S",
    "hvac_type": "package",
    "hvac_age_yr": 6,
    "insulation_quality": "poor",
    "occupancy_pattern": "school",
    "annual_kwh": 121596.0,
    "osm_way_id": 592104144
   }
  },
  {
   "type": "Feature",
   "geometry": {
    "type": "Polygon",
    "coordinates": [
     [
      [
       31.4798727,
       30.0237547
      ],
      [
       31.4799988,
       30.0237542
      ],
      [
       31.4799987,
       30.0237411
      ],
      [
       31.4800428,
       30.0237409
      ],
      [
       31.4800427,
       30.0237282
      ],
      [
       31.4800814,
       30.023728
      ],
      [
       31.4800805,
       30.0235693
      ],
      [
       31.4800448,
       30.0235695
      ],
      [
       31.4800447,
       30.0235569
      ],
      [
       31.4800014,
       30.0235571
      ],
      [
       31.4800013,
       30.0235419
      ],
      [
       31.4798606,
       30.0235425
      ],
      [
       31.4798607,
       30.0235584
      ],
      [
       31.4798213,
       30.0235586
      ],
      [
       31.4798213,
       30.0235733
      ],
      [
       31.4797922,
       30.0235734
      ],
      [
       31.479793,
       30.0237235
      ],
      [
       31.4798331,
       30.0237234
      ],
      [
       31.4798332,
       30.0237402
      ],
      [
       31.4798726,
       30.02374
      ],
      [
       31.4798727,
       30.0237547
      ]
     ]
    ]
   },
   "properties": {
    "id": "b010",
    "code": "NAC-Downtown-010",
    "name": "School Building 10",
    "district": "Downtown-CBD",
    "lat": 30.023649,
    "lon": 31.479935,
    "floor_area_m2": 1172.0,
    "roof_area_m2": 586.0,
    "glazing_area_m2": 179.9,
    "roof_orientation": "FLAT",
    "hvac_type": "split",
    "hvac_age_yr": 18,
    "insulation_quality": "fair",
    "occupancy_pattern": "school",
    "annual_kwh": 123460.0,
    "osm_way_id": 592098086
   }
  },
  {
   "type": "Feature",
   "geometry": {
    "type": "Polygon",
    "coordinates": [
     [
      [
       31.4894901,
       30.0263922
      ],
      [
       31.489486,
       30.0260559
      ],
      [
       31.4895577,
       30.0260552
      ],
      [
       31.4895569,
       30.025996
      ],
      [
       31.4902865,
       30.0259893
      ],
      [
       31.4902874,
       30.0260644
      ],
      [
       31.4903366,
       30.026064
      ],
      [
       31.4903406,
       30.0263844
      ],
      [
       31.4894901,
       30.0263922
      ]
     ]
    ]
   },
   "properties": {
    "id": "b011",
    "code": "NAC-Knowledge-011",
    "name": "Office Building 11",
    "district": "Knowledge-City",
    "lat": 30.026125,
    "lon": 31.489918,
    "floor_area_m2": 17621.9,
    "roof_area_m2": 3524.4,
    "glazing_area_m2": 2100.5,
    "roof_orientation": "S",
    "hvac_type": "package",
    "hvac_age_yr": 10,
    "insulation_quality": "poor",
    "occupancy_pattern": "office",
    "annual_kwh": 3318897.0,
    "osm_way_id": 252560390
   }
  },
  {
   "type": "Feature",
   "geometry": {
    "type": "Polygon",
    "coordinates": [
     [
      [
       31.4901041,
       30.0254798
      ],
      [
       31.4912426,
       30.0254768
      ],
      [
       31.4912424,
       30.0254026
      ],
      [
       31.491242,
       30.0253097
      ],
      [
       31.4912418,
       30.0252237
      ],
      [
       31.4901032,
       30.0252265
      ],
      [
       31.4901035,
       30.0253096
      ],
      [
       31.4901038,
       30.0254052
      ],
      [
       31.4901041,
       30.0254798
      ]
     ]
    ]
   },
   "properties": {
    "id": "b012",
    "code": "NAC-Knowledge-012",
    "name": "Office Building 12",
    "district": "Knowledge-City",
    "lat": 30.025354,
    "lon": 31.490673,
    "floor_area_m2": 9279.1,
    "roof_area_m2": 3093.0,
    "glazing_area_m2": 2744.2,
    "roof_orientation": "FLAT",
    "hvac_type": "package",
    "hvac_age_yr": 2,
    "insulation_quality": "fair",
    "occupancy_pattern": "office",
    "annual_kwh": 1460508.0,
    "osm_way_id": 1232415410
   }
  },
  {
   "type": "Feature",
   "geometry": {
    "type": "Polygon",
    "coordinates": [
     [
      [
       31.4901649,
       30.0378148
      ],
      [
       31.4899902,
       30.0375918
      ],
      [
       31.4896306,
       30.0376442
      ],
      [
       31.4896247,
       30.0376125
      ],
      [
       31.4897572,
       30.037594
      ],
      [
       31.4897378,
       30.0374915
      ],
      [
       31.4897654,
       30.0374586
      ],
      [
       31.4897412,
       30.0373283
      ],
      [
       31.4896799,
       30.0372888
      ],
      [
       31.4894358,
       30.0373238
      ],
      [
       31.4895078,
       30.0376996
      ],
      [
       31.4895078,
       30.0378687
      ],
      [
       31.4897188,
       30.0378687
      ],
      [
       31.4901649,
       30.0378148
      ]
     ]
    ]
   },
   "properties": {
    "id": "b013",
    "code": "NAC-Knowledge-013",
    "name": "Office Building 13",
    "district": "Knowledge-City",
    "lat": 30.037583,
    "lon": 31.489712,
    "floor_area_m2": 9704.2,
    "roof_area_m2": 2426.1,
    "glazing_area_m2": 856.6,
    "roof_orientation": "S",
    "hvac_type": "package",
    "hvac_age_yr": 20,
    "insulation_quality": "poor",
    "occupancy_pattern": "office",
    "annual_kwh": 1736809.0,
    "osm_way_id": 1304314503
   }
  },
  {
   "type": "Feature",
   "geometry": {
    "type": "Polygon",
    "coordinates": [
     [
      [
       31.4886802,
       30.0283498
      ],
      [
       31.4891067,
       30.0283474
      ],
      [
       31.4891067,
       30.0279039
      ],
      [
       31.4886775,
       30.0278946
      ],
      [
       31.4886802,
       30.0283498
      ]
     ]
    ]
   },
   "properties": {
    "id": "b014",
    "code": "NAC-Knowledge-014",
    "name": "School Building 14",
    "district": "Knowledge-City",
    "lat": 30.028124,
    "lon": 31.488893,
    "floor_area_m2": 8250.5,
    "roof_area_m2": 2062.6,
    "glazing_area_m2": 1978.3,
    "roof_orientation": "FLAT",
    "hvac_type": "chiller",
    "hvac_age_yr": 6,
    "insulation_quality": "poor",
    "occupancy_pattern": "school",
    "annual_kwh": 748454.0,
    "osm_way_id": 338261350
   }
  },
  {
   "type": "Feature",
   "geometry": {
    "type": "Polygon",
    "coordinates": [
     [
      [
       31.4882376,
       30.0265408
      ],
      [
       31.4882269,
       30.0269054
      ],
      [
       31.4887258,
       30.0269054
      ],
      [
       31.4887312,
       30.0265384
      ],
      [
       31.4882376,
       30.0265408
      ]
     ]
    ]
   },
   "properties": {
    "id": "b015",
    "code": "NAC-Knowledge-015",
    "name": "School Building 15",
    "district": "Knowledge-City",
    "lat": 30.026722,
    "lon": 31.48848,
    "floor_area_m2": 3895.0,
    "roof_area_m2": 1947.5,
    "glazing_area_m2": 841.4,
    "roof_orientation": "S",
    "hvac_type": "chiller",
    "hvac_age_yr": 15,
    "insulation_quality": "good",
    "occupancy_pattern": "school",
    "annual_kwh": 463133.0,
    "osm_way_id": 338261349
   }
  },
  {
   "type": "Feature",
   "geometry": {
    "type": "Polygon",
    "coordinates": [
     [
      [
       31.4931786,
       30.0258316
      ],
      [
       31.4933748,
       30.0258357
      ],
      [
       31.4934098,
       30.0264988
      ],
      [
       31.4932277,
       30.0264968
      ],
      [
       31.493216,
       30.0263977
      ],
      [
       31.4930035,
       30.0263795
      ],
      [
       31.4930058,
       30.0262582
      ],
      [
       31.4931926,
       30.0262562
      ],
      [
       31.4931786,
       30.0258316
      ]
     ]
    ]
   },
   "properties": {
    "id": "b016",
    "code": "NAC-Knowledge-016",
    "name": "School Building 16",
    "district": "Knowledge-City",
    "lat": 30.026244,
    "lon": 31.493201,
    "floor_area_m2": 3370.6,
    "roof_area_m2": 1685.3,
    "glazing_area_m2": 499.6,
    "roof_orientation": "FLAT",
    "hvac_type": "package",
    "hvac_age_yr": 17,
    "insulation_quality": "good",
    "occupancy_pattern": "school",
    "annual_kwh": 342926.0,
    "osm_way_id": 832893978
   }
  },
  {
   "type": "Feature",
   "geometry": {
    "type": "Polygon",
    "coordinates": [
     [
      [
       31.491921,
       30.0280035
      ],
      [
       31.4919625,
       30.027987
      ],
      [
       31.4920126,
       30.0279603
      ],
      [
       31.4920865,
       30.0278992
      ],
      [
       31.4920664,
       30.0277339
      ],
      [
       31.4920984,
       30.0277338
      ],
      [
       31.4922776,
       30.0277332
      ],
      [
       31.4923045,
       30.0277333
      ],
      [
       31.4923005,
       30.027914
      ],
      [
       31.4923001,
       30.0279336
      ],
      [
       31.492364,
       30.0279352
      ],
      [
       31.4923762,
       30.0281411
      ],
      [
       31.4922807,
       30.0281405
      ],
      [
       31.4922813,
       30.0281797
      ],
      [
       31.4920341,
       30.0281896
      ],
      [
       31.4919197,
       30.0281613
      ],
      [
       31.49192,
       30.0281138
      ],
      [
       31.491921,
       30.0280035
      ]
     ]
    ]
   },
   "properties": {
    "id": "b017",
    "code": "NAC-Knowledge-017",
    "name": "Office Building 17",
    "district": "Knowledge-City",
    "lat": 30.02797,
    "lon": 31.492147,
    "floor_area_m2": 3184.9,
    "roof_area_m2": 1592.5,
    "glazing_area_m2": 325.6,
    "roof_orientation": "E",
    "hvac_type": "package",
    "hvac_age_yr": 5,
    "insulation_quality": "fair",
    "occupancy_pattern": "office",
    "annual_kwh": 558088.0,
    "osm_way_id": 1227370363
   }
  },
  {
   "type": "Feature",
   "geometry": {
    "type": "Polygon",
    "coordinates": [
     [
      [
       31.4919198,
       30.0264762
      ],
      [
       31.4919205,
       30.0265003
      ],
      [
       31.491945,
       30.0264998
      ],
      [
       31.491955,
       30.0264908
      ],
      [
       31.4919743,
       30.0265067
      ],
      [
       31.4919586,
       30.026521
      ],
      [
       31.492033,
       30.0265825
      ],
      [
       31.4920363,
       30.0265825
      ],
      [
       31.4921498,
       30.0265816
      ],
      [
       31.4921503,
       30.0265684
      ],
      [
       31.4922114,
       30.0265686
      ],
      [
       31.4922106,
       30.026587
      ],
      [
       31.4922906,
       30.0265868
      ],
      [
       31.4922911,
       30.0265687
      ],
      [
       31.4923512,
       30.0265683
      ],
      [
       31.4923491,
       30.0265159
      ],
      [
       31.4923585,
       30.0265063
      ],
      [
       31.4923484,
       30.0264967
      ],
      [
       31.4923471,
       30.0264629
      ],
      [
       31.4923459,
       30.0264307
      ],
      [
       31.4921627,
       30.0264307
      ],
      [
       31.4921651,
       30.0264218
      ],
      [
       31.492082,
       30.026391
      ],
      [
       31.4920739,
       30.0264033
      ],
      [
       31.4919698,
       30.0263118
      ],
      [
       31.4919599,
       30.0263031
      ],
      [
       31.4918416,
       30.0263971
      ],
      [
       31.4918536,
       30.026407
      ],
      [
       31.4919282,
       30.0264686
      ],
      [
       31.4919198,
       30.0264762
      ]
     ]
    ]
   },
   "properties": {
    "id": "b018",
    "code": "NAC-Knowledge-018",
    "name": "Admin 24X7 Building 18",
    "district": "Knowledge-City",
    "lat": 30.026487,
    "lon": 31.49211,
    "floor_area_m2": 6739.0,
    "roof_area_m2": 842.4,
    "glazing_area_m2": 607.0,
    "roof_orientation": "FLAT",
    "hvac_type": "split",
    "hvac_age_yr": 6,
    "insulation_quality": "fair",
    "occupancy_pattern": "admin_24x7",
    "annual_kwh": 1379500.0,
    "osm_way_id": 1227370366
   }
  },
  {
   "type": "Feature",
   "geometry": {
    "type": "Polygon",
    "coordinates": [
     [
      [
       31.4935602,
       30.0481789
      ],
      [
       31.4935531,
       30.0481138
      ],
      [
       31.4935975,
       30.0480859
      ],
      [
       31.4936261,
       30.0480486
      ],
      [
       31.493649,
       30.0480335
      ],
      [
       31.4937592,
       30.0479994
      ],
      [
       31.4938911,
       30.0482483
      ],
      [
       31.4936298,
       30.0483592
      ],
      [
       31.4935602,
       30.0481789
      ]
     ]
    ]
   },
   "properties": {
    "id": "b019",
    "code": "NAC-Knowledge-019",
    "name": "Office Building 19",
    "district": "Knowledge-City",
    "lat": 30.048133,
    "lon": 31.493658,
    "floor_area_m2": 4742.7,
    "roof_area_m2": 790.4,
    "glazing_area_m2": 852.0,
    "roof_orientation": "FLAT",
    "hvac_type": "chiller",
    "hvac_age_yr": 7,
    "insulation_quality": "fair",
    "occupancy_pattern": "office",
    "annual_kwh": 898341.0,
    "osm_way_id": 498052959
   }
  },
  {
   "type": "Feature",
   "geometry": {
    "type": "Polygon",
    "coordinates": [
     [
      [
       31.4913828,
       30.0366958
      ],
      [
       31.4914457,
       30.0367481
      ],
      [
       31.4914564,
       30.0367385
      ],
      [
       31.491479,
       30.0367573
      ],
      [
       31.491478,
       30.0367694
      ],
      [
       31.4914629,
       30.036783
      ],
      [
       31.4914478,
       30.0367705
      ],
      [
       31.4913734,
       30.036838
      ],
      [
       31.4915081,
       30.0369493
      ],
      [
       31.4915262,
       30.0369329
      ],
      [
       31.4915443,
       30.0369479
      ],
      [
       31.4915934,
       30.0369034
      ],
      [
       31.4915721,
       30.0368857
      ],
      [
       31.4915952,
       30.0368648
      ],
      [
       31.4915635,
       30.0368386
      ],
      [
       31.4915949,
       30.0368102
      ],
      [
       31.4916805,
       30.0368098
      ],
      [
       31.4916802,
       30.0367585
      ],
      [
       31.4915479,
       30.0367591
      ],
      [
       31.4915477,
       30.0367276
      ],
      [
       31.4916146,
       30.0366673
      ],
      [
       31.4915833,
       30.0366413
      ],
      [
       31.4915926,
       30.0366329
      ],
      [
       31.4915413,
       30.0365903
      ],
      [
       31.4915263,
       30.0366038
      ],
      [
       31.4915048,
       30.0365859
      ],
      [
       31.4913828,
       30.0366958
      ]
     ]
    ]
   },
   "properties": {
    "id": "b020",
    "code": "NAC-Knowledge-020",
    "name": "Clinic Building 20",
    "district": "Knowledge-City",
    "lat": 30.03677,
    "lon": 31.491532,
    "floor_area_m2": 2382.1,
    "roof_area_m2": 595.5,
    "glazing_area_m2": 284.4,
    "roof_orientation": "FLAT",
    "hvac_type": "split",
    "hvac_age_yr": 17,
    "insulation_quality": "fair",
    "occupancy_pattern": "clinic",
    "annual_kwh": 482842.0,
    "osm_way_id": 1304314474
   }
  },
  {
   "type": "Feature",
   "geometry": {
    "type": "Polygon",
    "coordinates": [
     [
      [
       31.4951537,
       30.027418
      ],
      [
       31.4951269,
       30.0267585
      ],
      [
       31.4953791,
       30.0268142
      ],
      [
       31.4955078,
       30.0269304
      ],
      [
       31.49554,
       30.0272137
      ],
      [
       31.4954863,
       30.0273484
      ],
      [
       31.4952932,
       30.027432
      ],
      [
       31.4951537,
       30.027418
      ]
     ]
    ]
   },
   "properties": {
    "id": "b021",
    "code": "NAC-Medical-021",
    "name": "Admin 24X7 Building 21",
    "district": "Medical-City",
    "lat": 30.027131,
    "lon": 31.495355,
    "floor_area_m2": 9445.4,
    "roof_area_m2": 2361.3,
    "glazing_area_m2": 1020.9,
    "roof_orientation": "FLAT",
    "hvac_type": "split",
    "hvac_age_yr": 8,
    "insulation_quality": "good",
    "occupancy_pattern": "admin_24x7",
    "annual_kwh": 1998407.0,
    "osm_way_id": 832893977
   }
  },
  {
   "type": "Feature",
   "geometry": {
    "type": "Polygon",
    "coordinates": [
     [
      [
       31.4997928,
       30.0201186
      ],
      [
       31.4996512,
       30.0202346
      ],
      [
       31.499577,
       30.0201667
      ],
      [
       31.4994591,
       30.0202633
      ],
      [
       31.4995354,
       30.0203332
      ],
      [
       31.4994385,
       30.0204127
      ],
      [
       31.4990918,
       30.0200954
      ],
      [
       31.4991291,
       30.0200648
      ],
      [
       31.4991074,
       30.020045
      ],
      [
       31.499067,
       30.020008
      ],
      [
       31.499127,
       30.0199588
      ],
      [
       31.4991651,
       30.0199936
      ],
      [
       31.4991921,
       30.0200183
      ],
      [
       31.4992255,
       30.0199909
      ],
      [
       31.4993635,
       30.0201171
      ],
      [
       31.4995891,
       30.0199322
      ],
      [
       31.4997928,
       30.0201186
      ]
     ]
    ]
   },
   "properties": {
    "id": "b022",
    "code": "NAC-Medical-022",
    "name": "School Building 22",
    "district": "Medical-City",
    "lat": 30.02011,
    "lon": 31.499344,
    "floor_area_m2": 6411.2,
    "roof_area_m2": 1602.8,
    "glazing_area_m2": 1358.3,
    "roof_orientation": "FLAT",
    "hvac_type": "split",
    "hvac_age_yr": 18,
    "insulation_quality": "poor",
    "occupancy_pattern": "school",
    "annual_kwh": 729150.0,
    "osm_way_id": 539061341
   }
  },
  {
   "type": "Feature",
   "geometry": {
    "type": "Polygon",
    "coordinates": [
     [
      [
       31.4965951,
       30.0495489
      ],
      [
       31.4967808,
       30.0495443
      ],
      [
       31.4970008,
       30.0495321
      ],
      [
       31.496874,
       30.0492454
      ],
      [
       31.4966574,
       30.0492988
      ],
      [
       31.496587,
       30.0493127
      ],
      [
       31.496587,
       30.0493713
      ],
      [
       31.4965951,
       30.0495489
      ]
     ]
    ]
   },
   "properties": {
    "id": "b023",
    "code": "NAC-Medical-023",
    "name": "Admin 24X7 Building 23",
    "district": "Medical-City",
    "lat": 30.049408,
    "lon": 31.496726,
    "floor_area_m2": 4028.0,
    "roof_area_m2": 1007.0,
    "glazing_area_m2": 469.6,
    "roof_orientation": "FLAT",
    "hvac_type": "chiller",
    "hvac_age_yr": 20,
    "insulation_quality": "good",
    "occupancy_pattern": "admin_24x7",
    "annual_kwh": 874850.0,
    "osm_way_id": 497855287
   }
  },
  {
   "type": "Feature",
   "geometry": {
    "type": "Polygon",
    "coordinates": [
     [
      [
       31.4954903,
       30.0480224
      ],
      [
       31.4955904,
       30.0482568
      ],
      [
       31.4953004,
       30.0483495
      ],
      [
       31.4952004,
       30.0481152
      ],
      [
       31.4954903,
       30.0480224
      ]
     ]
    ]
   },
   "properties": {
    "id": "b024",
    "code": "NAC-Medical-024",
    "name": "School Building 24",
    "district": "Medical-City",
    "lat": 30.048186,
    "lon": 31.495395,
    "floor_area_m2": 2485.2,
    "roof_area_m2": 828.4,
    "glazing_area_m2": 218.3,
    "roof_orientation": "FLAT",
    "hvac_type": "split",
    "hvac_age_yr": 12,
    "insulation_quality": "poor",
    "occupancy_pattern": "school",
    "annual_kwh": 281590.0,
    "osm_way_id": 498052948
   }
  },
  {
   "type": "Feature",
   "geometry": {
    "type": "Polygon",
    "coordinates": [
     [
      [
       31.4946033,
       30.0461842
      ],
      [
       31.4946991,
       30.0464171
      ],
      [
       31.4944654,
       30.0464892
      ],
      [
       31.4943696,
       30.0462563
      ],
      [
       31.4946033,
       30.0461842
      ]
     ]
    ]
   },
   "properties": {
    "id": "b025",
    "code": "NAC-Medical-025",
    "name": "Office Building 25",
    "district": "Medical-City",
    "lat": 30.046337,
    "lon": 31.494534,
    "floor_area_m2": 2631.8,
    "roof_area_m2": 657.9,
    "glazing_area_m2": 233.8,
    "roof_orientation": "FLAT",
    "hvac_type": "chiller",
    "hvac_age_yr": 19,
    "insulation_quality": "poor",
    "occupancy_pattern": "office",
    "annual_kwh": 382547.0,
    "osm_way_id": 498052957
   }
  },
  {
   "type": "Feature",
   "geometry": {
    "type": "Polygon",
    "coordinates": [
     [
      [
       31.4943194,
       30.0489281
      ],
      [
       31.4945296,
       30.0490955
      ],
      [
       31.4943615,
       30.0492535
      ],
      [
       31.4941514,
       30.049086
      ],
      [
       31.4943194,
       30.0489281
      ]
     ]
    ]
   },
   "properties": {
    "id": "b026",
    "code": "NAC-Medical-026",
    "name": "Office Building 26",
    "district": "Medical-City",
    "lat": 30.049091,
    "lon": 31.49434,
    "floor_area_m2": 2631.6,
    "roof_area_m2": 657.9,
    "glazing_area_m2": 735.3,
    "roof_orientation": "FLAT",
    "hvac_type": "chiller",
    "hvac_age_yr": 5,
    "insulation_quality": "poor",
    "occupancy_pattern": "office",
    "annual_kwh": 448044.0,
    "osm_way_id": 498052944
   }
  },
  {
   "type": "Feature",
   "geometry": {
    "type": "Polygon",
    "coordinates": [
     [
      [
       31.4941238,
       30.0477885
      ],
      [
       31.4943979,
       30.0477092
      ],
      [
       31.4944675,
       30.0478894
      ],
      [
       31.4941934,
       30.0479687
      ],
      [
       31.4941238,
       30.0477885
      ]
     ]
    ]
   },
   "properties": {
    "id": "b027",
    "code": "NAC-Medical-027",
    "name": "Clinic Building 27",
    "district": "Medical-City",
    "lat": 30.047839,
    "lon": 31.494296,
    "floor_area_m2": 1178.1,
    "roof_area_m2": 589.0,
    "glazing_area_m2": 176.9,
    "roof_orientation": "FLAT",
    "hvac_type": "package",
    "hvac_age_yr": 12,
    "insulation_quality": "poor",
    "occupancy_pattern": "clinic",
    "annual_kwh": 197684.0,
    "osm_way_id": 498052953
   }
  },
  {
   "type": "Feature",
   "geometry": {
    "type": "Polygon",
    "coordinates": [
     [
      [
       31.4957345,
       30.0495631
      ],
      [
       31.4957376,
       30.0497442
      ],
      [
       31.4954032,
       30.049746
      ],
      [
       31.4954632,
       30.0495668
      ],
      [
       31.4957345,
       30.0495631
      ]
     ]
    ]
   },
   "properties": {
    "id": "b028",
    "code": "NAC-Medical-028",
    "name": "Clinic Building 28",
    "district": "Medical-City",
    "lat": 30.049655,
    "lon": 31.495585,
    "floor_area_m2": 2337.5,
    "roof_area_m2": 584.4,
    "glazing_area_m2": 582.5,
    "roof_orientation": "S",
    "hvac_type": "split",
    "hvac_age_yr": 12,
    "insulation_quality": "poor",
    "occupancy_pattern": "clinic",
    "annual_kwh": 444603.0,
    "osm_way_id": 497882943
   }
  },
  {
   "type": "Feature",
   "geometry": {
    "type": "Polygon",
    "coordinates": [
     [
      [
       31.4960274,
       30.0495608
      ],
      [
       31.4960304,
       30.0497419
      ],
      [
       31.4957381,
       30.0497456
      ],
      [
       31.4957351,
       30.0495645
      ],
      [
       31.4960274,
       30.0495608
      ]
     ]
    ]
   },
   "properties": {
    "id": "b029",
    "code": "NAC-Medical-029",
    "name": "Clinic Building 29",
    "district": "Medical-City",
    "lat": 30.049653,
    "lon": 31.495883,
    "floor_area_m2": 1703.8,
    "roof_area_m2": 567.9,
    "glazing_area_m2": 268.8,
    "roof_orientation": "FLAT",
    "hvac_type": "package",
    "hvac_age_yr": 22,
    "insulation_quality": "fair",
    "occupancy_pattern": "clinic",
    "annual_kwh": 336734.0,
    "osm_way_id": 497882942
   }
  },
  {
   "type": "Feature",
   "geometry": {
    "type": "Polygon",
    "coordinates": [
     [
      [
       31.5051515,
       30.0426047
      ],
      [
       31.5054976,
       30.0424509
      ],
      [
       31.5054167,
       30.0423419
      ],
      [
       31.5051011,
       30.0424704
      ],
      [
       31.5051515,
       30.0426047
      ]
     ]
    ]
   },
   "properties": {
    "id": "b030",
    "code": "NAC-Medical-030",
    "name": "Office Building 30",
    "district": "Medical-City",
    "lat": 30.042467,
    "lon": 31.505292,
    "floor_area_m2": 3186.9,
    "roof_area_m2": 531.2,
    "glazing_area_m2": 814.1,
    "roof_orientation": "FLAT",
    "hvac_type": "split",
    "hvac_age_yr": 25,
    "insulation_quality": "fair",
    "occupancy_pattern": "office",
    "annual_kwh": 485927.0,
    "osm_way_id": 1125728391
   }
  },
  {
   "type": "Feature",
   "geometry": {
    "type": "Polygon",
    "coordinates": [
     [
      [
       31.4757747,
       30.0232416
      ],
      [
       31.4757888,
       30.0232544
      ],
      [
       31.4758077,
       30.0232387
      ],
      [
       31.4758191,
       30.0232488
      ],
      [
       31.4758577,
       30.0232164
      ],
      [
       31.4760019,
       30.0233452
      ],
      [
       31.4759624,
       30.0233785
      ],
      [
       31.4759713,
       30.0233864
      ],
      [
       31.4759509,
       30.0234034
      ],
      [
       31.4759614,
       30.0234128
      ],
      [
       31.4758583,
       30.0234991
      ],
      [
       31.4758464,
       30.0234885
      ],
      [
       31.4758282,
       30.0235039
      ],
      [
       31.4758201,
       30.0234966
      ],
      [
       31.4757791,
       30.0235309
      ],
      [
       31.4756277,
       30.0233949
      ],
      [
       31.4756629,
       30.0233656
      ],
      [
       31.4756548,
       30.0233583
      ],
      [
       31.4756745,
       30.0233418
      ],
      [
       31.4756652,
       30.0233334
      ],
      [
       31.4757747,
       30.0232416
      ]
     ]
    ]
   },
   "properties": {
    "id": "b031",
    "code": "NAC-R3-031",
    "name": "Clinic Building 31",
    "district": "R3-Government",
    "lat": 30.023372,
    "lon": 31.475816,
    "floor_area_m2": 1409.4,
    "roof_area_m2": 704.7,
    "glazing_area_m2": 407.1,
    "roof_orientation": "FLAT",
    "hvac_type": "split",
    "hvac_age_yr": 22,
    "insulation_quality": "fair",
    "occupancy_pattern": "clinic",
    "annual_kwh": 265470.0,
    "osm_way_id": 592099058
   }
  },
  {
   "type": "Feature",
   "geometry": {
    "type": "Polygon",
    "coordinates": [
     [
      [
       31.4772221,
       30.0238506
      ],
      [
       31.4772407,
       30.0238578
      ],
      [
       31.4772512,
       30.0238369
      ],
      [
       31.4772662,
       30.0238425
      ],
      [
       31.4772875,
       30.0237997
      ],
      [
       31.4774778,
       30.0238707
      ],
      [
       31.4774561,
       30.0239145
      ],
      [
       31.4774678,
       30.0239188
      ],
      [
       31.4774566,
       30.0239413
      ],
      [
       31.4774704,
       30.0239465
      ],
      [
       31.4774136,
       30.0240605
      ],
      [
       31.4773979,
       30.0240547
      ],
      [
       31.4773879,
       30.0240749
      ],
      [
       31.4773772,
       30.0240709
      ],
      [
       31.4773546,
       30.0241162
      ],
      [
       31.4771545,
       30.0240411
      ],
      [
       31.4771739,
       30.0240023
      ],
      [
       31.4771632,
       30.0239983
      ],
      [
       31.4771741,
       30.0239764
      ],
      [
       31.4771617,
       30.0239718
      ],
      [
       31.4772221,
       30.0238506
      ]
     ]
    ]
   },
   "properties": {
    "id": "b032",
    "code": "NAC-R3-032",
    "name": "School Building 32",
    "district": "R3-Government",
    "lat": 30.023957,
    "lon": 31.477318,
    "floor_area_m2": 1409.2,
    "roof_area_m2": 704.6,
    "glazing_area_m2": 234.6,
    "roof_orientation": "SW",
    "hvac_type": "package",
    "hvac_age_yr": 20,
    "insulation_quality": "poor",
    "occupancy_pattern": "school",
    "annual_kwh": 145510.0,
    "osm_way_id": 592099051
   }
  },
  {
   "type": "Feature",
   "geometry": {
    "type": "Polygon",
    "coordinates": [
     [
      [
       31.4760342,
       30.023457
      ],
      [
       31.4760482,
       30.0234698
      ],
      [
       31.4760672,
       30.023454
      ],
      [
       31.4760786,
       30.0234642
      ],
      [
       31.4761172,
       30.0234318
      ],
      [
       31.4762613,
       30.0235606
      ],
      [
       31.4762219,
       30.0235938
      ],
      [
       31.4762307,
       30.0236018
      ],
      [
       31.4762104,
       30.0236188
      ],
      [
       31.4762209,
       30.0236281
      ],
      [
       31.4761177,
       30.0237145
      ],
      [
       31.4761059,
       30.0237039
      ],
      [
       31.4760877,
       30.0237193
      ],
      [
       31.4760796,
       30.0237119
      ],
      [
       31.4760386,
       30.0237462
      ],
      [
       31.4758872,
       30.0236103
      ],
      [
       31.4759224,
       30.0235809
      ],
      [
       31.4759142,
       30.0235737
      ],
      [
       31.475934,
       30.0235571
      ],
      [
       31.4759246,
       30.0235487
      ],
      [
       31.4760342,
       30.023457
      ]
     ]
    ]
   },
   "properties": {
    "id": "b033",
    "code": "NAC-R3-033",
    "name": "School Building 33",
    "district": "R3-Government",
    "lat": 30.023587,
    "lon": 31.476075,
    "floor_area_m2": 2818.1,
    "roof_area_m2": 704.5,
    "glazing_area_m2": 728.3,
    "roof_orientation": "FLAT",
    "hvac_type": "package",
    "hvac_age_yr": 13,
    "insulation_quality": "poor",
    "occupancy_pattern": "school",
    "annual_kwh": 299919.0,
    "osm_way_id": 592099057
   }
  },
  {
   "type": "Feature",
   "geometry": {
    "type": "Polygon",
    "coordinates": [
     [
      [
       31.4776092,
       30.0214962
      ],
      [
       31.4775887,
       30.0214965
      ],
      [
       31.4775891,
       30.0215192
      ],
      [
       31.4775728,
       30.0215194
      ],
      [
       31.4775736,
       30.021566
      ],
      [
       31.4773664,
       30.0215687
      ],
      [
       31.4773656,
       30.021521
      ],
      [
       31.4773528,
       30.0215212
      ],
      [
       31.4773524,
       30.0214967
      ],
      [
       31.4773373,
       30.0214969
      ],
      [
       31.4773354,
       30.0213727
      ],
      [
       31.4773523,
       30.0213725
      ],
      [
       31.4773519,
       30.0213505
      ],
      [
       31.4773636,
       30.0213504
      ],
      [
       31.4773628,
       30.0213011
      ],
      [
       31.4775809,
       30.0212986
      ],
      [
       31.4775815,
       30.0213408
      ],
      [
       31.4775932,
       30.0213407
      ],
      [
       31.4775936,
       30.0213646
      ],
      [
       31.477607,
       30.0213644
      ],
      [
       31.4776092,
       30.0214962
      ]
     ]
    ]
   },
   "properties": {
    "id": "b034",
    "code": "NAC-R3-034",
    "name": "Admin 24X7 Building 34",
    "district": "R3-Government",
    "lat": 30.021433,
    "lon": 31.477472,
    "floor_area_m2": 5635.6,
    "roof_area_m2": 704.4,
    "glazing_area_m2": 907.0,
    "roof_orientation": "FLAT",
    "hvac_type": "split",
    "hvac_age_yr": 16,
    "insulation_quality": "poor",
    "occupancy_pattern": "admin_24x7",
    "annual_kwh": 1178026.0,
    "osm_way_id": 592098081
   }
  },
  {
   "type": "Feature",
   "geometry": {
    "type": "Polygon",
    "coordinates": [
     [
      [
       31.4754319,
       30.0224666
      ],
      [
       31.4754321,
       30.0224488
      ],
      [
       31.4754059,
       30.0224487
      ],
      [
       31.475406,
       30.0224345
      ],
      [
       31.4753522,
       30.0224341
      ],
      [
       31.4753538,
       30.0222548
      ],
      [
       31.4754089,
       30.0222551
      ],
      [
       31.475409,
       30.0222441
      ],
      [
       31.4754372,
       30.0222443
      ],
      [
       31.4754374,
       30.0222312
      ],
      [
       31.4755808,
       30.0222323
      ],
      [
       31.4755807,
       30.022247
      ],
      [
       31.4756061,
       30.0222472
      ],
      [
       31.4756059,
       30.0222573
      ],
      [
       31.4756629,
       30.0222578
      ],
      [
       31.4756607,
       30.0224465
      ],
      [
       31.4756119,
       30.0224461
      ],
      [
       31.4756118,
       30.0224563
      ],
      [
       31.4755843,
       30.0224561
      ],
      [
       31.4755842,
       30.0224677
      ],
      [
       31.4754319,
       30.0224666
      ]
     ]
    ]
   },
   "properties": {
    "id": "b035",
    "code": "NAC-R3-035",
    "name": "Office Building 35",
    "district": "R3-Government",
    "lat": 30.022349,
    "lon": 31.475508,
    "floor_area_m2": 4226.5,
    "roof_area_m2": 704.4,
    "glazing_area_m2": 923.3,
    "roof_orientation": "FLAT",
    "hvac_type": "chiller",
    "hvac_age_yr": 23,
    "insulation_quality": "poor",
    "occupancy_pattern": "office",
    "annual_kwh": 792333.0,
    "osm_way_id": 592091776
   }
  },
  {
   "type": "Feature",
   "geometry": {
    "type": "Polygon",
    "coordinates": [
     [
      [
       31.47599,
       30.0224726
      ],
      [
       31.4759901,
       30.0224549
      ],
      [
       31.4759639,
       30.0224547
      ],
      [
       31.4759641,
       30.0224405
      ],
      [
       31.4759103,
       30.0224402
      ],
      [
       31.4759119,
       30.0222608
      ],
      [
       31.4759669,
       30.0222612
      ],
      [
       31.475967,
       30.0222501
      ],
      [
       31.4759953,
       30.0222503
      ],
      [
       31.4759954,
       30.0222373
      ],
      [
       31.4761389,
       30.0222384
      ],
      [
       31.4761387,
       30.022253
      ],
      [
       31.4761641,
       30.0222532
      ],
      [
       31.476164,
       30.0222633
      ],
      [
       31.476221,
       30.0222638
      ],
      [
       31.4762188,
       30.0224526
      ],
      [
       31.47617,
       30.0224522
      ],
      [
       31.4761699,
       30.0224624
      ],
      [
       31.4761423,
       30.0224622
      ],
      [
       31.4761422,
       30.0224737
      ],
      [
       31.47599,
       30.0224726
      ]
     ]
    ]
   },
   "properties": {
    "id": "b036",
    "code": "NAC-R3-036",
    "name": "School Building 36",
    "district": "R3-Government",
    "lat": 30.022355,
    "lon": 31.476066,
    "floor_area_m2": 1408.7,
    "roof_area_m2": 704.4,
    "glazing_area_m2": 168.1,
    "roof_orientation": "FLAT",
    "hvac_type": "split",
    "hvac_age_yr": 9,
    "insulation_quality": "fair",
    "occupancy_pattern": "school",
    "annual_kwh": 148779.0,
    "osm_way_id": 592091778
   }
  },
  {
   "type": "Feature",
   "geometry": {
    "type": "Polygon",
    "coordinates": [
     [
      [
       31.4753664,
       30.0396606
      ],
      [
       31.475697,
       30.0396588
      ],
      [
       31.4756956,
       30.0394731
      ],
      [
       31.4753651,
       30.0394748
      ],
      [
       31.4753664,
       30.0396606
      ]
     ]
    ]
   },
   "properties": {
    "id": "b037",
    "code": "NAC-R3-037",
    "name": "Office Building 37",
    "district": "R3-Government",
    "lat": 30.039567,
    "lon": 31.475531,
    "floor_area_m2": 1317.4,
    "roof_area_m2": 658.7,
    "glazing_area_m2": 371.2,
    "roof_orientation": "FLAT",
    "hvac_type": "chiller",
    "hvac_age_yr": 16,
    "insulation_quality": "good",
    "occupancy_pattern": "office",
    "annual_kwh": 210421.0,
    "osm_way_id": 1278161271
   }
  },
  {
   "type": "Feature",
   "geometry": {
    "type": "Polygon",
    "coordinates": [
     [
      [
       31.4773673,
       30.039175
      ],
      [
       31.4773623,
       30.0392081
      ],
      [
       31.4773915,
       30.0392394
      ],
      [
       31.4774263,
       30.0392438
      ],
      [
       31.477425,
       30.0392577
      ],
      [
       31.4774082,
       30.0392603
      ],
      [
       31.4774059,
       30.0393021
      ],
      [
       31.4774226,
       30.0393042
      ],
      [
       31.4774206,
       30.0393207
      ],
      [
       31.4774491,
       30.0393219
      ],
      [
       31.4774612,
       30.0393277
      ],
      [
       31.4774806,
       30.0393259
      ],
      [
       31.477484,
       30.0393216
      ],
      [
       31.4775018,
       30.0393222
      ],
      [
       31.4775014,
       30.0393123
      ],
      [
       31.477653,
       30.0393088
      ],
      [
       31.4776533,
       30.0391138
      ],
      [
       31.4775987,
       30.0390357
      ],
      [
       31.4773673,
       30.039175
      ]
     ]
    ]
   },
   "properties": {
    "id": "b038",
    "code": "NAC-R3-038",
    "name": "Admin 24X7 Building 38",
    "district": "R3-Government",
    "lat": 30.039261,
    "lon": 31.477467,
    "floor_area_m2": 2485.0,
    "roof_area_m2": 621.3,
    "glazing_area_m2": 456.3,
    "roof_orientation": "FLAT",
    "hvac_type": "split",
    "hvac_age_yr": 12,
    "insulation_quality": "fair",
    "occupancy_pattern": "admin_24x7",
    "annual_kwh": 564138.0,
    "osm_way_id": 1278161261
   }
  },
  {
   "type": "Feature",
   "geometry": {
    "type": "Polygon",
    "coordinates": [
     [
      [
       31.4768419,
       30.0391437
      ],
      [
       31.476849,
       30.0391509
      ],
      [
       31.4768691,
       30.0391509
      ],
      [
       31.4768775,
       30.0391448
      ],
      [
       31.4768852,
       30.0391448
      ],
      [
       31.4768859,
       30.0391628
      ],
      [
       31.4768939,
       30.0391681
      ],
      [
       31.4769046,
       30.0391698
      ],
      [
       31.4769657,
       30.0391695
      ],
      [
       31.477025,
       30.0391413
      ],
      [
       31.4771014,
       30.0390531
      ],
      [
       31.4770877,
       30.0390467
      ],
      [
       31.4771082,
       30.0390189
      ],
      [
       31.4771149,
       30.0389893
      ],
      [
       31.4771266,
       30.0389904
      ],
      [
       31.4771242,
       30.0389556
      ],
      [
       31.4770947,
       30.0389591
      ],
      [
       31.4770988,
       30.0389208
      ],
      [
       31.477029,
       30.0389237
      ],
      [
       31.477029,
       30.0389318
      ],
      [
       31.4768614,
       30.0389318
      ],
      [
       31.4768621,
       30.0389431
      ],
      [
       31.4768802,
       30.038944
      ],
      [
       31.4768812,
       30.0389539
      ],
      [
       31.4768456,
       30.0389533
      ],
      [
       31.4768419,
       30.0391437
      ]
     ]
    ]
   },
   "properties": {
    "id": "b039",
    "code": "NAC-R3-039",
    "name": "Office Building 39",
    "district": "R3-Government",
    "lat": 30.039042,
    "lon": 31.47697,
    "floor_area_m2": 1765.9,
    "roof_area_m2": 588.6,
    "glazing_area_m2": 235.2,
    "roof_orientation": "FLAT",
    "hvac_type": "package",
    "hvac_age_yr": 15,
    "insulation_quality": "good",
    "occupancy_pattern": "office",
    "annual_kwh": 318929.0,
    "osm_way_id": 1278164647
   }
  },
  {
   "type": "Feature",
   "geometry": {
    "type": "Polygon",
    "coordinates": [
     [
      [
       31.4753566,
       30.0401625
      ],
      [
       31.4756442,
       30.0401612
      ],
      [
       31.4756431,
       30.0399771
      ],
      [
       31.4753554,
       30.0399785
      ],
      [
       31.4753566,
       30.0401625
      ]
     ]
    ]
   },
   "properties": {
    "id": "b040",
    "code": "NAC-R3-040",
    "name": "Office Building 40",
    "district": "R3-Government",
    "lat": 30.04007,
    "lon": 31.4755,
    "floor_area_m2": 2271.8,
    "roof_area_m2": 568.0,
    "glazing_area_m2": 611.2,
    "roof_orientation": "FLAT",
    "hvac_type": "chiller",
    "hvac_age_yr": 23,
    "insulation_quality": "poor",
    "occupancy_pattern": "office",
    "annual_kwh": 386717.0,
    "osm_way_id": 1278161273
   }
  },
  {
   "type": "Feature",
   "geometry": {
    "type": "Polygon",
    "coordinates": [
     [
      [
       31.4783505,
       30.0231959
      ],
      [
       31.4783439,
       30.0231792
      ],
      [
       31.478319,
       30.0231866
      ],
      [
       31.4783137,
       30.0231733
      ],
      [
       31.4782629,
       30.0231886
      ],
      [
       31.4781946,
       30.0230193
      ],
      [
       31.4782466,
       30.0230035
      ],
      [
       31.4782424,
       30.0229931
      ],
      [
       31.4782691,
       30.022985
      ],
      [
       31.4782641,
       30.0229727
      ],
      [
       31.4783996,
       30.0229319
      ],
      [
       31.4784052,
       30.0229457
      ],
      [
       31.4784292,
       30.0229385
      ],
      [
       31.478433,
       30.022948
      ],
      [
       31.4784868,
       30.0229319
      ],
      [
       31.4785583,
       30.0231102
      ],
      [
       31.4785121,
       30.0231241
      ],
      [
       31.478516,
       30.0231337
      ],
      [
       31.4784899,
       30.0231415
      ],
      [
       31.4784944,
       30.0231525
      ],
      [
       31.4783505,
       30.0231959
      ]
     ]
    ]
   },
   "properties": {
    "id": "b041",
    "code": "NAC-R5-041",
    "name": "Admin 24X7 Building 41",
    "district": "R5-Residential",
    "lat": 30.023063,
    "lon": 31.478377,
    "floor_area_m2": 2113.7,
    "roof_area_m2": 704.6,
    "glazing_area_m2": 327.2,
    "roof_orientation": "E",
    "hvac_type": "split",
    "hvac_age_yr": 5,
    "insulation_quality": "good",
    "occupancy_pattern": "admin_24x7",
    "annual_kwh": 543624.0,
    "osm_way_id": 592098089
   }
  },
  {
   "type": "Feature",
   "geometry": {
    "type": "Polygon",
    "coordinates": [
     [
      [
       31.4783506,
       30.0234879
      ],
      [
       31.4783524,
       30.0234703
      ],
      [
       31.4783262,
       30.0234684
      ],
      [
       31.4783275,
       30.0234543
      ],
      [
       31.4782739,
       30.0234506
      ],
      [
       31.4782904,
       30.0232718
      ],
      [
       31.4783453,
       30.0232755
      ],
      [
       31.4783463,
       30.0232645
      ],
      [
       31.4783745,
       30.0232665
      ],
      [
       31.4783757,
       30.0232535
      ],
      [
       31.4785187,
       30.0232635
      ],
      [
       31.4785173,
       30.0232782
      ],
      [
       31.4785427,
       30.0232799
      ],
      [
       31.4785417,
       30.02329
      ],
      [
       31.4785985,
       30.023294
      ],
      [
       31.4785806,
       30.0234822
      ],
      [
       31.4785319,
       30.0234787
      ],
      [
       31.478531,
       30.0234888
      ],
      [
       31.4785036,
       30.0234869
      ],
      [
       31.4785025,
       30.0234985
      ],
      [
       31.4783506,
       30.0234879
      ]
     ]
    ]
   },
   "properties": {
    "id": "b042",
    "code": "NAC-R5-042",
    "name": "Office Building 42",
    "district": "R5-Residential",
    "lat": 30.023375,
    "lon": 31.478437,
    "floor_area_m2": 4227.3,
    "roof_area_m2": 704.5,
    "glazing_area_m2": 540.0,
    "roof_orientation": "FLAT",
    "hvac_type": "chiller",
    "hvac_age_yr": 20,
    "insulation_quality": "good",
    "occupancy_pattern": "office",
    "annual_kwh": 594589.0,
    "osm_way_id": 592098091
   }
  },
  {
   "type": "Feature",
   "geometry": {
    "type": "Polygon",
    "coordinates": [
     [
      [
       31.4780628,
       30.0220971
      ],
      [
       31.4780481,
       30.0220848
      ],
      [
       31.4780299,
       30.0221012
      ],
      [
       31.4780181,
       30.0220914
      ],
      [
       31.4779809,
       30.022125
      ],
      [
       31.4778313,
       30.0220009
      ],
      [
       31.4778694,
       30.0219665
      ],
      [
       31.4778602,
       30.0219588
      ],
      [
       31.4778798,
       30.0219412
      ],
      [
       31.4778689,
       30.0219321
      ],
      [
       31.4779683,
       30.0218426
      ],
      [
       31.4779805,
       30.0218527
      ],
      [
       31.4779981,
       30.0218368
      ],
      [
       31.4780065,
       30.0218438
      ],
      [
       31.478046,
       30.0218083
      ],
      [
       31.4782031,
       30.0219392
      ],
      [
       31.4781692,
       30.0219697
      ],
      [
       31.4781777,
       30.0219767
      ],
      [
       31.4781586,
       30.0219939
      ],
      [
       31.4781683,
       30.022002
      ],
      [
       31.4780628,
       30.0220971
      ]
     ]
    ]
   },
   "properties": {
    "id": "b043",
    "code": "NAC-R5-043",
    "name": "School Building 43",
    "district": "R5-Residential",
    "lat": 30.021968,
    "lon": 31.478016,
    "floor_area_m2": 2818.0,
    "roof_area_m2": 704.5,
    "glazing_area_m2": 323.7,
    "roof_orientation": "FLAT",
    "hvac_type": "split",
    "hvac_age_yr": 8,
    "insulation_quality": "poor",
    "occupancy_pattern": "school",
    "annual_kwh": 281858.0,
    "osm_way_id": 592095250
   }
  },
  {
   "type": "Feature",
   "geometry": {
    "type": "Polygon",
    "coordinates": [
     [
      [
       31.4779132,
       30.0239034
      ],
      [
       31.4779308,
       30.0238945
      ],
      [
       31.4779174,
       30.0238749
      ],
      [
       31.4779314,
       30.0238676
      ],
      [
       31.4779037,
       30.0238277
      ],
      [
       31.4780814,
       30.0237354
      ],
      [
       31.4781098,
       30.0237763
      ],
      [
       31.4781207,
       30.0237706
      ],
      [
       31.4781352,
       30.0237916
      ],
      [
       31.4781481,
       30.0237849
      ],
      [
       31.4782218,
       30.0238915
      ],
      [
       31.4782072,
       30.023899
      ],
      [
       31.4782203,
       30.0239179
      ],
      [
       31.4782103,
       30.0239231
      ],
      [
       31.4782395,
       30.0239654
      ],
      [
       31.4780522,
       30.0240622
      ],
      [
       31.4780272,
       30.0240258
      ],
      [
       31.4780172,
       30.0240311
      ],
      [
       31.4780031,
       30.0240106
      ],
      [
       31.4779915,
       30.0240166
      ],
      [
       31.4779132,
       30.0239034
      ]
     ]
    ]
   },
   "properties": {
    "id": "b044",
    "code": "NAC-R5-044",
    "name": "Admin 24X7 Building 44",
    "district": "R5-Residential",
    "lat": 30.023899,
    "lon": 31.478069,
    "floor_area_m2": 2817.9,
    "roof_area_m2": 704.5,
    "glazing_area_m2": 319.2,
    "roof_orientation": "SE",
    "hvac_type": "split",
    "hvac_age_yr": 24,
    "insulation_quality": "poor",
    "occupancy_pattern": "admin_24x7",
    "annual_kwh": 718288.0,
    "osm_way_id": 592099047
   }
  },
  {
   "type": "Feature",
   "geometry": {
    "type": "Polygon",
    "coordinates": [
     [
      [
       31.478462,
       30.0215427
      ],
      [
       31.4784415,
       30.021543
      ],
      [
       31.4784419,
       30.0215657
      ],
      [
       31.4784256,
       30.0215659
      ],
      [
       31.4784264,
       30.0216125
      ],
      [
       31.4782192,
       30.0216152
      ],
      [
       31.4782184,
       30.0215675
      ],
      [
       31.4782056,
       30.0215677
      ],
      [
       31.4782052,
       30.0215432
      ],
      [
       31.4781901,
       30.0215434
      ],
      [
       31.4781882,
       30.0214192
      ],
      [
       31.4782051,
       30.021419
      ],
      [
       31.4782047,
       30.021397
      ],
      [
       31.4782164,
       30.0213969
      ],
      [
       31.4782156,
       30.0213476
      ],
      [
       31.4784337,
       30.0213451
      ],
      [
       31.4784343,
       30.0213873
      ],
      [
       31.478446,
       30.0213872
      ],
      [
       31.4784464,
       30.0214111
      ],
      [
       31.4784598,
       30.0214109
      ],
      [
       31.478462,
       30.0215427
      ]
     ]
    ]
   },
   "properties": {
    "id": "b045",
    "code": "NAC-R5-045",
    "name": "School Building 45",
    "district": "R5-Residential",
    "lat": 30.021479,
    "lon": 31.478324,
    "floor_area_m2": 2113.3,
    "roof_area_m2": 704.4,
    "glazing_area_m2": 602.5,
    "roof_orientation": "SE",
    "hvac_type": "package",
    "hvac_age_yr": 23,
    "insulation_quality": "good",
    "occupancy_pattern": "school",
    "annual_kwh": 247355.0,
    "osm_way_id": 592095267
   }
  },
  {
   "type": "Feature",
   "geometry": {
    "type": "Polygon",
    "coordinates": [
     [
      [
       31.4789356,
       30.0219543
      ],
      [
       31.4789363,
       30.021972
      ],
      [
       31.4789625,
       30.0219712
      ],
      [
       31.478963,
       30.0219854
      ],
      [
       31.4790167,
       30.0219839
      ],
      [
       31.4790236,
       30.0221631
      ],
      [
       31.4789686,
       30.0221647
      ],
      [
       31.478969,
       30.0221757
      ],
      [
       31.4789408,
       30.0221765
      ],
      [
       31.4789413,
       30.0221896
      ],
      [
       31.4787979,
       30.0221936
      ],
      [
       31.4787974,
       30.0221789
      ],
      [
       31.478772,
       30.0221797
      ],
      [
       31.4787716,
       30.0221696
      ],
      [
       31.4787146,
       30.0221711
      ],
      [
       31.4787079,
       30.0219824
      ],
      [
       31.4787566,
       30.0219811
      ],
      [
       31.4787563,
       30.0219709
      ],
      [
       31.4787838,
       30.0219701
      ],
      [
       31.4787834,
       30.0219586
      ],
      [
       31.4789356,
       30.0219543
      ]
     ]
    ]
   },
   "properties": {
    "id": "b046",
    "code": "NAC-R5-046",
    "name": "Clinic Building 46",
    "district": "R5-Residential",
    "lat": 30.022075,
    "lon": 31.478865,
    "floor_area_m2": 2817.2,
    "roof_area_m2": 704.3,
    "glazing_area_m2": 453.6,
    "roof_orientation": "FLAT",
    "hvac_type": "split",
    "hvac_age_yr": 15,
    "insulation_quality": "poor",
    "occupancy_pattern": "clinic",
    "annual_kwh": 485500.0,
    "osm_way_id": 592096571
   }
  },
  {
   "type": "Feature",
   "geometry": {
    "type": "Polygon",
    "coordinates": [
     [
      [
       31.4790611,
       30.0215496
      ],
      [
       31.4790407,
       30.0215499
      ],
      [
       31.4790411,
       30.0215726
      ],
      [
       31.4790247,
       30.0215728
      ],
      [
       31.4790255,
       30.0216193
      ],
      [
       31.4788184,
       30.021622
      ],
      [
       31.4788175,
       30.0215744
      ],
      [
       31.4788048,
       30.0215745
      ],
      [
       31.4788044,
       30.0215501
      ],
      [
       31.4787893,
       30.0215503
      ],
      [
       31.4787873,
       30.0214261
      ],
      [
       31.4788042,
       30.0214259
      ],
      [
       31.4788038,
       30.0214039
      ],
      [
       31.4788155,
       30.0214037
      ],
      [
       31.4788148,
       30.0213544
      ],
      [
       31.4790328,
       30.021352
      ],
      [
       31.4790334,
       30.0213942
      ],
      [
       31.4790452,
       30.0213941
      ],
      [
       31.4790456,
       30.0214179
      ],
      [
       31.4790589,
       30.0214178
      ],
      [
       31.4790611,
       30.0215496
      ]
     ]
    ]
   },
   "properties": {
    "id": "b047",
    "code": "NAC-R5-047",
    "name": "Clinic Building 47",
    "district": "R5-Residential",
    "lat": 30.021486,
    "lon": 31.478923,
    "floor_area_m2": 2817.0,
    "roof_area_m2": 704.3,
    "glazing_area_m2": 465.3,
    "roof_orientation": "FLAT",
    "hvac_type": "split",
    "hvac_age_yr": 21,
    "insulation_quality": "fair",
    "occupancy_pattern": "clinic",
    "annual_kwh": 537256.0,
    "osm_way_id": 592095262
   }
  },
  {
   "type": "Feature",
   "geometry": {
    "type": "Polygon",
    "coordinates": [
     [
      [
       31.4789224,
       30.0237486
      ],
      [
       31.4790485,
       30.0237481
      ],
      [
       31.4790485,
       30.023735
      ],
      [
       31.4790925,
       30.0237348
      ],
      [
       31.4790924,
       30.023722
      ],
      [
       31.4791312,
       30.0237219
      ],
      [
       31.4791302,
       30.0235632
      ],
      [
       31.4790945,
       30.0235634
      ],
      [
       31.4790944,
       30.0235508
      ],
      [
       31.4790511,
       30.023551
      ],
      [
       31.479051,
       30.0235358
      ],
      [
       31.4789104,
       30.0235363
      ],
      [
       31.4789105,
       30.0235523
      ],
      [
       31.478871,
       30.0235525
      ],
      [
       31.4788711,
       30.0235671
      ],
      [
       31.4788419,
       30.0235672
      ],
      [
       31.4788427,
       30.0237174
      ],
      [
       31.4788828,
       30.0237173
      ],
      [
       31.4788829,
       30.023734
      ],
      [
       31.4789223,
       30.0237339
      ],
      [
       31.4789224,
       30.0237486
      ]
     ]
    ]
   },
   "properties": {
    "id": "b048",
    "code": "NAC-R5-048",
    "name": "Admin 24X7 Building 48",
    "district": "R5-Residential",
    "lat": 30.023643,
    "lon": 31.478985,
    "floor_area_m2": 2344.6,
    "roof_area_m2": 586.1,
    "glazing_area_m2": 251.7,
    "roof_orientation": "SW",
    "hvac_type": "split",
    "hvac_age_yr": 22,
    "insulation_quality": "poor",
    "occupancy_pattern": "admin_24x7",
    "annual_kwh": 533724.0,
    "osm_way_id": 592098087
   }
  },
  {
   "type": "Feature",
   "geometry": {
    "type": "Polygon",
    "coordinates": [
     [
      [
       31.4778726,
       30.0400399
      ],
      [
       31.477888,
       30.0400597
      ],
      [
       31.4778907,
       30.0400893
      ],
      [
       31.4778786,
       30.0401154
      ],
      [
       31.4778779,
       30.0401433
      ],
      [
       31.4781106,
       30.0401427
      ],
      [
       31.4781069,
       30.0400658
      ],
      [
       31.4781217,
       30.0400666
      ],
      [
       31.4781217,
       30.0400037
      ],
      [
       31.4781056,
       30.0400042
      ],
      [
       31.4781073,
       30.0399314
      ],
      [
       31.4779249,
       30.0399244
      ],
      [
       31.4779232,
       30.0399291
      ],
      [
       31.4778743,
       30.0399291
      ],
      [
       31.4778743,
       30.0399508
      ],
      [
       31.4778826,
       30.0399604
      ],
      [
       31.4778883,
       30.039981
      ],
      [
       31.4778857,
       30.0400077
      ],
      [
       31.4778726,
       30.0400399
      ]
     ]
    ]
   },
   "properties": {
    "id": "b049",
    "code": "NAC-R5-049",
    "name": "School Building 49",
    "district": "R5-Residential",
    "lat": 30.040019,
    "lon": 31.477963,
    "floor_area_m2": 1057.8,
    "roof_area_m2": 528.9,
    "glazing_area_m2": 278.5,
    "roof_orientation": "S",
    "hvac_type": "split",
    "hvac_age_yr": 24,
    "insulation_quality": "good",
    "occupancy_pattern": "school",
    "annual_kwh": 101464.0,
    "osm_way_id": 1278161270
   }
  },
  {
   "type": "Feature",
   "geometry": {
    "type": "Polygon",
    "coordinates": [
     [
      [
       31.4778701,
       30.0397459
      ],
      [
       31.4778855,
       30.0397657
      ],
      [
       31.4778882,
       30.0397953
      ],
      [
       31.4778761,
       30.0398214
      ],
      [
       31.4778754,
       30.0398492
      ],
      [
       31.4781081,
       30.0398487
      ],
      [
       31.4781044,
       30.0397718
      ],
      [
       31.4781192,
       30.0397726
      ],
      [
       31.4781192,
       30.0397096
      ],
      [
       31.4781031,
       30.0397102
      ],
      [
       31.4781048,
       30.0396374
      ],
      [
       31.4778717,
       30.0396351
      ],
      [
       31.4778717,
       30.0396568
      ],
      [
       31.4778801,
       30.0396664
      ],
      [
       31.4778858,
       30.039687
      ],
      [
       31.4778831,
       30.0397137
      ],
      [
       31.4778701,
       30.0397459
      ]
     ]
    ]
   },
   "properties": {
    "id": "b050",
    "code": "NAC-R5-050",
    "name": "Clinic Building 50",
    "district": "R5-Residential",
    "lat": 30.039737,
    "lon": 31.477965,
    "floor_area_m2": 2094.2,
    "roof_area_m2": 523.6,
    "glazing_area_m2": 437.4,
    "roof_orientation": "S",
    "hvac_type": "package",
    "hvac_age_yr": 20,
    "insulation_quality": "poor",
    "occupancy_pattern": "clinic",
    "annual_kwh": 367639.0,
    "osm_way_id": 1278161269
   }
  }
 ]
}